LILACSAT-2
1 40908U 15049K   17151.95300295  .00000507  00000-0  32232-4 0  9996
2 40908 097.4618 157.3267 0014497 266.9498 093.0075 15.13099218093711
XW-2F
1 40910U 15049M   17151.91773253  .00001379  00000-0  76247-4 0  9995
2 40910 097.4536 158.1582 0013702 266.8522 093.1143 15.15470998093815
XW-2B
1 40911U 15049N   17151.91180936  .00000902  00000-0  52379-4 0  9997
2 40911 097.4559 157.8626 0012802 269.7753 090.2012 15.14568615093674
DCBB
1 40912U 15049P   17151.92759850  .00002273  00000-0  11629-3 0  9991
2 40912 097.4501 159.9592 0014084 258.4230 163.7505 15.17568530093825
TW-1C
1 40926U 15051B   17151.85595196  .00011728  00000-0  27205-3 0  9994
2 40926 097.2302 191.5449 0010156 222.5914 255.4486 15.42493967094408
TW-1A
1 40928U 15051D   17151.87021538  .00005632  00000-0  16265-3 0  9993
2 40928 097.2280 187.9795 0010910 256.7889 212.3982 15.36005266094199
IO-86
1 40931U 15052B   17151.62801405  .00000703  00000-0  89181-5 0  9993
2 40931 005.9998 350.7619 0013626 007.2549 352.7789 14.76529146090516
GomX-3
1 40949U 98067HA  16292.18357804  .08527750  12374-4  77882-3 0  9992
2 40949  51.6055 106.7696 0006699 286.1344  73.8944 16.38002265 59645
LQSat
1 40958U 15057A   17151.87662175  .00000062  00000-0  17431-4 0  9999
2 40958 097.9778 227.4796 0019401 116.3782 243.9404 14.72965736088715
AO-85
1 40967U 15058D   17152.30851698  .00000352  00000-0  60044-4 0 05018
2 40967 064.7789 267.0426 0171960 083.8561 278.2104 14.75420913074776
ATHENOXAT-1
1 41168U 15077C   17151.05318001  .00000865  00000-0  10943-4 0  9993
2 41168 014.9871 294.5744 0011966 137.9711 350.1247 15.11528495080448
ChubuSat-2
1 41338U 16012B   17151.58006410  .00000436  00000-0  27564-4 0  9999
2 41338 031.0026 217.7332 0013978 255.4918 104.4166 14.99734057070491
ChubuSat-3
1 41339U 16012C   17151.84328803  .00000538  00000-0  35433-4 0  9999
2 41339 031.0102 215.2296 0014035 264.9042 095.0006 14.99941011070518
Horyu-4
1 41340U 16012D   17151.82400907  .00000620  00000-0  41113-4 0  9999
2 41340 031.0045 212.9556 0014293 272.6409 087.2590 15.00582945070553
OUFTI-1
1 41458U 16025C   17151.93543113  .00002383  00000-0  13148-3 0  9996
2 41458 098.1878 188.5846 0173812 344.4462 015.1460 15.03125616060142
e-st at r-II
1 41459U 16025D   17151.88814580  .00003439  00000-0  18793-3 0  9994
2 41459 098.1879 188.4862 0174345 345.1412 014.4724 15.02980707060128
AAUSAT4
1 41460U 16025E   17151.82853961  .00004514  00000-0  24529-3 0  9995
2 41460 098.1792 188.5142 0167215 343.5856 015.9952 15.03847374060131
MinXSS
1 41474U 98067HU  17125.52237589  .05724416  12300-4  86147-3 0  9995
2 41474 051.6449 208.6967 0008167 329.0747 030.9230 16.33400422055623
CADRE
1 41475U 98067HV  17003.74787607  .12518598  12537-4  55989-3 0  9998
2 41475  51.6110 110.0165 0004040 312.3134  47.7551 16.43344525 36494
NODES 1
1 41477U 98067HX  17151.89845989  .00048208  00000-0  24985-3 0  9991
2 41477 051.6281 087.8177 0004030 068.4376 291.7054 15.80524350059495
NODES 2
1 41478U 98067HY  17151.87173336  .00045606  00000-0  24192-3 0  9999
2 41478 051.6317 088.4094 0003833 067.6267 292.5141 15.80040427059484
LO-87
1 41557U 16033B   17151.89365463  .00001584  00000-0  62428-4 0  9998
2 41557 097.4630 231.4108 0015887 068.3605 291.9324 15.26994061055945
NuSat2
1 41558U 16033C   17151.85973587  .00001564  00000-0  61940-4 0  9993
2 41558 097.4656 231.4278 0015346 067.4380 292.8481 15.26867848055937
Lapan A3
1 41603U 16040E   17151.95805556  .00000408  00000-0  22516-4 0  9995
2 41603 097.4617 214.1347 0014768 126.3354 236.4120 15.19342063052191
Swayam
1 41607U 16040J   17151.87770191  .00001856  00000-0  87312-4 0  9999
2 41607 097.4612 214.3169 0015854 129.7483 230.5152 15.20719455052129
Pratham
1 41783U 16059A   17151.88140450  .00000079  00000-0  24869-4 0  9998
2 41783 098.1681 213.4230 0033009 209.9217 150.0098 14.62835377036219
AlSat 1N
1 41789U 16059G   17151.81508912  .00000158  00000-0  39312-4 0  9995
2 41789 098.1678 213.8243 0027686 203.9817 156.0085 14.64045285036218
ScatSat
1 41790U 16059H   17151.77223725  .00000029  00000-0  18253-4 0  9996
2 41790 098.0663 202.5144 0011047 190.4137 169.6831 14.50108260035886
TY-1
1 41844U 16066D   17151.84843948  .00001726  00000-0  78481-4 0  9991
2 41844 097.4046 159.2504 0014668 299.9561 181.9245 15.22006269030854
CAS-2T
1 41845U 16066E   17151.90173411  .00000126  00000-0  30685-4 0  9997
2 41845 098.7759 167.1417 0365698 296.6963 059.7208 14.37751872029157
Pegasus-1
1 41846U 16066F   17151.94740354  .00000454  00000-0  81143-4 0  9997
2 41846 098.7812 166.9908 0368327 297.7848 058.6453 14.37006881029148
STARS-C
1 41895U 98067KR  17151.88937789  .00019055  00000-0  22912-3 0  9990
2 41895 051.6381 115.7558 0002832 261.3805 098.6868 15.60874579025447
Tancredo 1
1 41931U 98067KT  17151.51690310  .00038318  00000-0  36960-3 0  9998
2 41931 051.6368 115.5026 0003732 190.3097 169.7822 15.66095057020981
ITF-2
1 41932U 98067KU  17151.86198164  .00009713  00000-0  12945-3 0  9991
2 41932 051.6405 117.0832 0004617 198.9161 161.1660 15.58837198020993
AOBA-V3LOX3
1 41935U 98067KX  17151.47077042  .00011370  00000-0  14895-3 0  9990
2 41935 051.6400 118.9673 0003989 200.6627 159.4205 15.59097014021030
OSNSAT
1 41939U 98067KZ  17151.31862086  .00024698  00000-0  27510-3 0  9992
2 41939 051.6375 117.9384 0004694 199.2607 160.8210 15.62677974020290
EO-88
1 42017U 17008BX  17151.87698489  .00001742  00000-0  77313-4 0  9993
2 42017 097.4959 213.3646 0004880 280.3522 079.7164 15.22913930016002
SOMP2
1 42700U 98067LH  17146.24099712  .00009256  00000-0  14175-3 0  9999
2 42700 051.6394 147.6262 0005235 254.8246 174.5572 15.55111160001533
HAVELSAT
1 42701U 98067LJ  17146.31642381  .00009020  00000-0  13835-3 0  9995
2 42701 051.6401 147.2493 0005571 239.9072 251.8913 15.55105705001524
Columbia
1 42702U 98067LK  17146.31563003  .00016324  00000-0  24342-3 0  9999
2 42702 051.6411 147.2500 0005131 240.7681 247.5549 15.55218209001456
PHOENIX
1 42706U 98067LP  17146.30862670  .00009420  00000-0  14424-3 0  9993
2 42706 051.6413 147.2969 0001591 208.7387 236.7375 15.55095288001440
X-CubeSat
1 42707U 98067LQ  17146.31691506  .00009066  00000-0  13920-3 0  9999
2 42707 051.6390 147.2573 0001089 164.9070 326.2930 15.55073688001431
qbee
1 42708U 98067LR  17146.30898514  .00009426  00000-0  14453-3 0  9999
2 42708 051.6402 147.2976 0000831 204.2355 241.8411 15.55055890001397
ZA-AeroSat
1 42713U 98067LU  17146.31006494  .00008579  00000-0  13260-3 0  9997
2 42713 051.6397 147.3145 0004307 234.4992 210.7788 15.54970279001106
LINK
1 42714U 98067LV  17146.31040925  .00009925  00000-0  15285-3 0  9990
2 42714 051.6383 147.3129 0002259 162.7260 282.6338 15.54867338001211
UPSat
1 42716U 98067LX  17146.31796131  .00010815  00000-0  16507-3 0  9997
2 42716 051.6405 147.2701 0003436 245.0525 245.4715 15.55003598001239
SpaceCube
1 42717U 98067LY  17146.31848382  .00008939  00000-0  13805-3 0  9996
2 42717 051.6359 147.2556 0000740 028.2884 103.8507 15.54930526000470
Hoopoe
1 42718U 98067LZ  17146.30953725  .00010024  00000-0  15368-3 0  9998
2 42718 051.6386 147.3131 0003987 247.9870 194.4663 15.54975590000471
UNSW-EC0
1 42721U 98067MA  17151.89101666  .00012643  00000-0  19212-3 0  9992
2 42721 051.6394 119.5131 0007094 246.1078 113.9170 15.54932958001043
NJUST-1
1 42722U 98067MB  17151.89122344  .00007096  00000-0  11146-3 0  9993
2 42722 051.6395 119.5149 0007002 246.6706 113.3549 15.54829268001049
Challenger
1 42723U 98067MC  17151.89123775  .00009595  00000-0  14804-3 0  9993
2 42723 051.6395 119.5146 0006924 245.8143 114.2124 15.54849134001026
DUTHsat
1 42724U 98067MD  17151.89148411  .00011898  00000-0  18193-3 0  9992
2 42724 051.6398 119.5170 0006019 250.0852 109.9491 15.54833187000946
LilacSat-1
1 42725U 98067ME  17151.31312080  .00009644  00000-0  14930-3 0  9996
2 42725 051.6398 122.4036 0006055 246.8453 113.1900 15.54753471000850
nSIGHT1
1 42726U 98067MF  17151.89172544  .00005944  00000-0  94964-4 0  9994
2 42726 051.6397 119.5182 0005994 250.4084 109.6260 15.54706826000953
QBITO
1 42728U 98067MH  17151.05584118  .00011510  00000-0  17638-3 0  9996
2 42728 051.6396 123.6858 0003026 256.8372 103.2281 15.54821603000622
Aalto-2
1 42729U 98067MJ  17151.50574702  .00010076  00000-0  15522-3 0  9991
2 42729 051.6397 121.4405 0003015 259.6412 100.4239 15.54837546000706
SUSat
1 42730U 98067MK  17151.18449434  .00010876  00000-0  16723-3 0  9992
2 42730 051.6398 123.0455 0003050 256.0947 103.9705 15.54792985000641
i-INSPIRE II
1 42731U 98067ML  17151.12027370  .00011037  00000-0  16905-3 0  9990
2 42731 051.6391 123.3654 0007279 188.4246 171.6624 15.54868103000688
PolyITAN-2-SAU
1 42732U 98067MM  17151.31308335  .00011010  00000-0  16858-3 0  9993
2 42732 051.6392 122.4031 0007335 189.1819 170.9039 15.54879610000717
SNUSAT-1
1 42733U 98067MN  17150.73476355  .00013250  00000-0  20182-3 0  9990
2 42733 051.6390 125.2909 0007053 187.8381 172.2501 15.54819745000629
ExAlta-1
1 42734U 98067MP  17151.50598490  .00010227  00000-0  15702-3 0  9995
2 42734 051.6394 121.4416 0008682 217.0637 142.9756 15.54888114000693
Aoxiang-1
1 42735U 98067MQ  17151.18472976  .00009273  00000-0  14327-3 0  9991
2 42735 051.6397 123.0454 0007705 240.0636 119.9590 15.54853512002064
BeEagleSat
1 42736U 98067MR  17151.44192021  .00009245  00000-0  14298-3 0  9997
2 42736 051.6396 121.7636 0007595 239.5976 120.4265 15.54830228000791
Atlantis
1 42737U 98067MS  17151.89173200  .00015995  00000-0  24094-3 0  9999
2 42737 051.6394 119.5188 0007345 240.3815 119.6444 15.54945359000759
